[{"OBJECT_NAME":"STARLINK-32046","OBJECT_ID":"2024-124R","EPOCH":"2026-03-09T22:35:18.930912","MEAN_MOTION":15.30174691,"ECCENTRICITY":0.00011862,"INCLINATION":53.1618,"RA_OF_ASC_NODE":321.3689,"ARG_OF_PERICENTER":85.8581,"MEAN_ANOMALY":274.2555,"EPHEMERIS_TYPE":0,"CLASSIFICATION_TYPE":"U","NORAD_CAT_ID":60198,"ELEMENT_SET_NO":999,"REV_AT_EPOCH":9556,"BSTAR":1.96104e-6,"MEAN_MOTION_DOT":-3.01e-6,"MEAN_MOTION_DDOT":0},{"OBJECT_NAME":"CZ-6A DEB","OBJECT_ID":"2022-151QV","EPOCH":"2026-03-09T04:36:08.895168","MEAN_MOTION":15.24642942,"ECCENTRICITY":0.00273347,"INCLINATION":98.639,"RA_OF_ASC_NODE":154.2763,"ARG_OF_PERICENTER":174.5721,"MEAN_ANOMALY":185.5815,"EPHEMERIS_TYPE":0,"CLASSIFICATION_TYPE":"U","NORAD_CAT_ID":54908,"ELEMENT_SET_NO":999,"REV_AT_EPOCH":17373,"BSTAR":0.0098290719,"MEAN_MOTION_DOT":0.00253193,"MEAN_MOTION_DDOT":0}]
